STARLINK-36126          
1 66866U 25281U   26157.82959663  .00016539  00000+0  60868-3 0  9993
2 66866  43.0056 200.4695 0003054 271.6515  88.3987 15.27605042 29801
STARLINK-36101          
1 66867U 25281V   26157.82574254  .00014985  00000+0  55287-3 0  9995
2 66867  42.9969 200.4333 0001701 265.7244  94.3413 15.27585611 29802
STARLINK-36108          
1 66868U 25281W   26157.82191100  .00022839  00000+0  83709-3 0  9998
2 66868  42.9988 200.4061 0001874 266.3959  93.6679 15.27572870 29802
STARLINK-36092          
1 66869U 25281X   26158.00004630  .00050134  00000+0  18192-2 0  9993
2 66869  42.9989 199.3101 0001876 332.9558 323.3985 15.27575350  5827
STARLINK-36114          
1 66870U 25281Y   26157.81160947  .00020079  00000+0  73684-3 0  9990
2 66870  42.9955 200.3197 0002231 284.0943  75.9661 15.27594404 29807
STARLINK-36095          
1 66871U 25281Z   26157.80774144  .00005814  00000+0  22035-3 0  9994
2 66871  43.0065 200.2911 0003209 279.8161  80.2329 15.27622060 29793
STARLINK-36082          
1 66872U 25281AA  26157.80387854  .00020263  00000+0  74297-3 0  9995
2 66872  42.9960 200.2597 0003950 281.7993  78.2415 15.27613308 29804
STARLINK-36128          
1 66873U 25281AB  26157.40130173  .00025005  00000+0  91506-3 0  9993
2 66873  42.9970 202.3989 0001153 271.5087  88.5632 15.27581642 29695
STARLINK-36129          
1 66874U 25281AC  26157.40773213  .00022762  00000+0  83411-3 0  9995
2 66874  42.9990 202.4481 0003247 273.8716  86.1764 15.27577448 29741
STARLINK-36053          
1 66875U 25281AD  26157.39744954  .00023905  00000+0  87461-3 0  9993
2 66875  42.9979 202.3691 0004970 279.1609  80.8680 15.27600768 29699
STARLINK-35702          
1 66876U 25281AE  26156.22692405  .00015846  00000+0  58290-3 0  9991
2 66876  42.9956 209.0670 0000553 274.3349  85.7439 15.27647460 29569
STARLINK-35866          
1 66878U 25283A   26158.00004630  .00027883  00000+0  95088-3 0  9990
2 66878  53.1589 329.2286 0001151  73.8732 135.1542 15.30169763  5881
STARLINK-35749          
1 66879U 25283B   26157.75459485  .00025019  00000+0  85377-3 0  9993
2 66879  53.1603 330.2415 0001272  86.6959 273.4187 15.30208119 29484
STARLINK-35844          
1 66880U 25283C   26157.62923978  .00022606  00000+0  77270-3 0  9996
2 66880  53.1598 330.8795 0001367 137.1935 222.9173 15.30214293 29469
STARLINK-35860          
1 66881U 25283D   26158.20545907  .00029832  00000+0  10147-2 0  9991
2 66881  53.1630 328.0782 0001281  57.8028 302.3097 15.30218880 29552
STARLINK-35912          
1 66882U 25283E   26157.77129516  .00030728  00000+0  91592-3 0  9997
2 66882  53.1610 329.6414 0002031  96.7741 263.3493 15.34432127 29493
STARLINK-35947          
1 66883U 25283F   26158.17051616  .00025304  00000+0  75711-3 0  9997
2 66883  53.1576 327.8658 0000745  87.2608 272.8480 15.34417043 29572
STARLINK-36057          
1 66884U 25283G   26158.20207553  .00021836  00000+0  65505-3 0  9991
2 66884  53.1635 328.0652 0001911  59.3637 300.7554 15.34422793 29553
STARLINK-35954          
1 66885U 25283H   26157.21241192  .00069547  00000+0  20480-2 0  9992
2 66885  53.1623 332.5533 0000959 302.3874  57.7036 15.34438576 29408
STARLINK-35900          
1 66886U 25283J   26157.65994722  .00038520  00000+0  11444-2 0  9992
2 66886  53.1592 330.3673 0000485  60.3969 299.7082 15.34427230 29476
STARLINK-35925          
1 66887U 25283K   26158.19998119  .00036721  00000+0  10933-2 0  9990
2 66887  53.1620 328.0459 0001059  73.7655 286.3464 15.34380125 29559
STARLINK-35919          
1 66888U 25283L   26157.88691474  .00030371  00000+0  90594-3 0  9997
2 66888  53.1605 329.6438 0000863  68.7469 291.3626 15.34415498 29509
STARLINK-35852          
1 66889U 25283M   26158.17892881  .00028486  00000+0  85063-3 0  9995
2 66889  53.1606 327.9118 0000727  76.3432 283.7652 15.34414178 29554
STARLINK-35885          
1 66890U 25283N   26158.19155814  .00030739  00000+0  91685-3 0  9998
2 66890  53.1610 327.9895 0000765  84.6753 275.4337 15.34411779 29555
STARLINK-35855          
1 66891U 25283P   26157.75453994  .00045931  00000+0  13587-2 0  9994
2 66891  53.1604 330.2369 0000693  98.3623 261.7458 15.34482551 29480
STARLINK-35883          
1 66892U 25283Q   26157.76831312  .00025215  00000+0  86014-3 0  9999
2 66892  53.1594 330.3268 0001976 103.2993 256.8228 15.30215441 29487
STARLINK-36033          
1 66893U 25283R   26158.20240680  .00019161  00000+0  65731-3 0  9998
2 66893  53.1622 328.7694 0000610  50.9913 309.1142 15.30203214 29547
STARLINK-35718          
1 66894U 25283S   26157.82728237  .00027862  00000+0  94910-3 0  9993
2 66894  53.1598 329.9812 0000968  88.7945 271.3166 15.30207274 29495
STARLINK-35971          
1 66895U 25283T   26157.65574324  .00031512  00000+0  93947-3 0  9997
2 66895  53.1597 330.3353 0001056  88.1036 272.0087 15.34412955 29471
STARLINK-35791          
1 66896U 25283U   26158.20862095  .00026192  00000+0  89225-3 0  9997
2 66896  53.1613 328.0935 0000596   6.1120 353.9888 15.30238983 29553
