OBJECT_NAME,OBJECT_ID,EPOCH,MEAN_MOTION,ECCENTRICITY,INCLINATION,RA_OF_ASC_NODE,ARG_OF_PERICENTER,MEAN_ANOMALY,EPHEMERIS_TYPE,CLASSIFICATION_TYPE,NORAD_CAT_ID,ELEMENT_SET_NO,REV_AT_EPOCH,BSTAR,MEAN_MOTION_DOT,MEAN_MOTION_DDOT
STARLINK-36126,2025-281U,2026-06-06T19:54:37.148832,15.27605042,.00030548,43.0056,200.4695,271.6515,88.3987,0,U,66866,999,2980,.60868089E-3,.16539E-3,0
STARLINK-36101,2025-281V,2026-06-06T19:49:04.155456,15.27585611,.00017013,42.9969,200.4333,265.7244,94.3413,0,U,66867,999,2980,.55286596E-3,.14985E-3,0
STARLINK-36108,2025-281W,2026-06-06T19:43:33.110400,15.27572870,.00018746,42.9988,200.4061,266.3959,93.6679,0,U,66868,999,2980,.83708639E-3,.22839E-3,0
STARLINK-36092,2025-281X,2026-06-07T00:00:04.000320,15.27575350,.00018761,42.9989,199.3101,332.9558,323.3985,0,U,66869,999,582,.18192312E-2,.50134E-3,0
STARLINK-36114,2025-281Y,2026-06-06T19:28:43.058208,15.27594404,.00022311,42.9955,200.3197,284.0943,75.9661,0,U,66870,999,2980,.73684442E-3,.20079E-3,0
STARLINK-36095,2025-281Z,2026-06-06T19:23:08.860416,15.27622060,.0003209,43.0065,200.2911,279.8161,80.2329,0,U,66871,999,2979,.22035409E-3,.5814E-4,0
STARLINK-36082,2025-281AA,2026-06-06T19:17:35.105856,15.27613308,.00039505,42.9960,200.2597,281.7993,78.2415,0,U,66872,999,2980,.74297256E-3,.20263E-3,0
STARLINK-36128,2025-281AB,2026-06-06T09:37:52.469472,15.27581642,.00011538,42.9970,202.3989,271.5087,88.5632,0,U,66873,999,2969,.91505845E-3,.25005E-3,0
STARLINK-36129,2025-281AC,2026-06-06T09:47:08.056032,15.27577448,.00032471,42.9990,202.4481,273.8716,86.1764,0,U,66874,999,2974,.8341145E-3,.22762E-3,0
STARLINK-36053,2025-281AD,2026-06-06T09:32:19.640256,15.27600768,.00049701,42.9979,202.3691,279.1609,80.8680,0,U,66875,999,2969,.87461491E-3,.23905E-3,0
STARLINK-35702,2025-281AE,2026-06-05T05:26:46.237920,15.27647460,.0000553,42.9956,209.0670,274.3349,85.7439,0,U,66876,999,2956,.5829E-3,.15846E-3,0
STARLINK-35866,2025-283A,2026-06-07T00:00:04.000320,15.30169763,.00011518,53.1589,329.2286,73.8732,135.1542,0,U,66878,999,588,.95088204E-3,.27883E-3,0
STARLINK-35749,2025-283B,2026-06-06T18:06:36.995040,15.30208119,.0001272,53.1603,330.2415,86.6959,273.4187,0,U,66879,999,2948,.85377077E-3,.25019E-3,0
STARLINK-35844,2025-283C,2026-06-06T15:06:06.316992,15.30214293,.00013675,53.1598,330.8795,137.1935,222.9173,0,U,66880,999,2946,.77269543E-3,.22606E-3,0
STARLINK-35860,2025-283D,2026-06-07T04:55:51.663648,15.30218880,.00012816,53.1630,328.0782,57.8028,302.3097,0,U,66881,999,2955,.101471E-2,.29832E-3,0
STARLINK-35912,2025-283E,2026-06-06T18:30:39.901824,15.34432127,.00020315,53.1610,329.6414,96.7741,263.3493,0,U,66882,999,2949,.9159167E-3,.30728E-3,0
STARLINK-35947,2025-283F,2026-06-07T04:05:32.596224,15.34417043,.00007453,53.1576,327.8658,87.2608,272.8480,0,U,66883,999,2957,.75710779E-3,.25304E-3,0
STARLINK-36057,2025-283G,2026-06-07T04:50:59.325792,15.34422793,.00019113,53.1635,328.0652,59.3637,300.7554,0,U,66884,999,2955,.65504835E-3,.21836E-3,0
STARLINK-35954,2025-283H,2026-06-06T05:05:52.389888,15.34438576,.00009593,53.1623,332.5533,302.3874,57.7036,0,U,66885,999,2940,.20480024E-2,.69547E-3,0
STARLINK-35900,2025-283J,2026-06-06T15:50:19.439808,15.34427230,.00004853,53.1592,330.3673,60.3969,299.7082,0,U,66886,999,2947,.11443669E-2,.3852E-3,0
STARLINK-35925,2025-283K,2026-06-07T04:47:58.374816,15.34380125,.00010595,53.1620,328.0459,73.7655,286.3464,0,U,66887,999,2955,.10933219E-2,.36721E-3,0
STARLINK-35919,2025-283L,2026-06-06T21:17:09.433536,15.34415498,.0000863,53.1605,329.6438,68.7469,291.3626,0,U,66888,999,2950,.90593738E-3,.30371E-3,0
STARLINK-35852,2025-283M,2026-06-07T04:17:39.449184,15.34414178,.00007272,53.1606,327.9118,76.3432,283.7652,0,U,66889,999,2955,.85062903E-3,.28486E-3,0
STARLINK-35885,2025-283N,2026-06-07T04:35:50.623296,15.34411779,.00007651,53.1610,327.9895,84.6753,275.4337,0,U,66890,999,2955,.91684823E-3,.30739E-3,0
STARLINK-35855,2025-283P,2026-06-06T18:06:32.250816,15.34482551,.00006937,53.1604,330.2369,98.3623,261.7458,0,U,66891,999,2948,.13586609E-2,.45931E-3,0
STARLINK-35883,2025-283Q,2026-06-06T18:26:22.253568,15.30215441,.00019769,53.1594,330.3268,103.2993,256.8228,0,U,66892,999,2948,.86013976E-3,.25215E-3,0
STARLINK-36033,2025-283R,2026-06-07T04:51:27.947520,15.30203214,.000061,53.1622,328.7694,50.9913,309.1142,0,U,66893,999,2954,.65730777E-3,.19161E-3,0
STARLINK-35718,2025-283S,2026-06-06T19:51:17.196768,15.30207274,.00009682,53.1598,329.9812,88.7945,271.3166,0,U,66894,999,2949,.94910182E-3,.27862E-3,0
STARLINK-35971,2025-283T,2026-06-06T15:44:16.215936,15.34412955,.00010569,53.1597,330.3353,88.1036,272.0087,0,U,66895,999,2947,.939473E-3,.31512E-3,0
STARLINK-35791,2025-283U,2026-06-07T05:00:24.850080,15.30238983,.00005966,53.1613,328.0935,6.1120,353.9888,0,U,66896,999,2955,.89224864E-3,.26192E-3,0
